[
    {
        "Altitude(m)": 564215.2352649594,
        "Argument of Periapsis(deg)": 0.006622991110713501,
        "Eccentricity": 0.0,
        "Inclination(deg)": 53.0,
        "Latitude(deg)": -34.34456612416303,
        "Longitude(deg)": -114.97038545894503,
        "Mean Anomaly(deg)": 224.63709286757756,
        "RAAN(deg)": 134.99014336852804,
        "Satellite Name": "Starlink Shell 1 607",
        "Satellite Number": 607,
        "Semi-Major Axis(m)": 6931778.249405717,
        "Time(s)": 190
    },
    {
        "Altitude(m)": 564388.5184558975,
        "Argument of Periapsis(deg)": 0.0069715695902247375,
        "Eccentricity": 0.0,
        "Inclination(deg)": 53.0,
        "Latitude(deg)": -34.77386994009919,
        "Longitude(deg)": -114.45878071545916,
        "Mean Anomaly(deg)": -134.73607592886572,
        "RAAN(deg)": 134.98962459845052,
        "Satellite Name": "Starlink Shell 1 607",
        "Satellite Number": 607,
        "Semi-Major Axis(m)": 6931778.249405717,
        "Time(s)": 200
    },
    {
        "Altitude(m)": 564561.247657859,
        "Argument of Periapsis(deg)": 0.007320148069735974,
        "Eccentricity": 0.0,
        "Inclination(deg)": 53.0,
        "Latitude(deg)": -35.200595240694504,
        "Longitude(deg)": -113.94145709516073,
        "Mean Anomaly(deg)": -134.10924472530897,
        "RAAN(deg)": 134.98910582837308,
        "Satellite Name": "Starlink Shell 1 607",
        "Satellite Number": 607,
        "Semi-Major Axis(m)": 6931778.249405717,
        "Time(s)": 210
    },
    {
        "Altitude(m)": 564733.3567022115,
        "Argument of Periapsis(deg)": 0.007668726549247212,
        "Eccentricity": 0.0,
        "Inclination(deg)": 53.0,
        "Latitude(deg)": -35.6246754280634,
        "Longitude(deg)": -113.41829823825097,
        "Mean Anomaly(deg)": -133.48241352175228,
        "RAAN(deg)": 134.98858705829562,
        "Satellite Name": "Starlink Shell 1 607",
        "Satellite Number": 607,
        "Semi-Major Axis(m)": 6931778.249405717,
        "Time(s)": 220
    },
    {
        "Altitude(m)": 564904.7795513688,
        "Argument of Periapsis(deg)": 0.00801730502875845,
        "Eccentricity": 0.0,
        "Inclination(deg)": 53.0,
        "Latitude(deg)": -36.046042376249986,
        "Longitude(deg)": -112.88918707175408,
        "Mean Anomaly(deg)": -132.8555823181955,
        "RAAN(deg)": 134.98806828821813,
        "Satellite Name": "Starlink Shell 1 607",
        "Satellite Number": 607,
        "Semi-Major Axis(m)": 6931778.249405717,
        "Time(s)": 230
    },
    {
        "Altitude(m)": 565075.4503282456,
        "Argument of Periapsis(deg)": 0.008365883508269684,
        "Eccentricity": 0.0,
        "Inclination(deg)": 53.0,
        "Latitude(deg)": -36.46462640051971,
        "Longitude(deg)": -112.35400539929685,
        "Mean Anomaly(deg)": -132.22875111463884,
        "RAAN(deg)": 134.98754951814064,
        "Satellite Name": "Starlink Shell 1 607",
        "Satellite Number": 607,
        "Semi-Major Axis(m)": 6931778.249405717,
        "Time(s)": 240
    },
    {
        "Altitude(m)": 565245.3033456325,
        "Argument of Periapsis(deg)": 0.008714461987780921,
        "Eccentricity": 0.0,
        "Inclination(deg)": 53.0,
        "Latitude(deg)": -36.88035622734159,
        "Longitude(deg)": -111.81263501335911,
        "Mean Anomaly(deg)": -131.60191991108212,
        "RAAN(deg)": 134.98703074806318,
        "Satellite Name": "Starlink Shell 1 607",
        "Satellite Number": 607,
        "Semi-Major Axis(m)": 6931778.249405717,
        "Time(s)": 250
    },
    {
        "Altitude(m)": 565414.2731355139,
        "Argument of Periapsis(deg)": 0.009063040467292158,
        "Eccentricity": 0.0,
        "Inclination(deg)": 53.0,
        "Latitude(deg)": -37.293158965203794,
        "Longitude(deg)": -111.26495730480784,
        "Mean Anomaly(deg)": -130.9750887075254,
        "RAAN(deg)": 134.98651197798569,
        "Satellite Name": "Starlink Shell 1 607",
        "Satellite Number": 607,
        "Semi-Major Axis(m)": 6931778.249405717,
        "Time(s)": 260
    },
    {
        "Altitude(m)": 565582.2944782156,
        "Argument of Periapsis(deg)": 0.009411618946803396,
        "Eccentricity": 0.0,
        "Inclination(deg)": 53.0,
        "Latitude(deg)": -37.70296007641937,
        "Longitude(deg)": -110.7108528831593,
        "Mean Anomaly(deg)": -130.34825750396865,
        "RAAN(deg)": 134.98599320790825,
        "Satellite Name": "Starlink Shell 1 607",
        "Satellite Number": 607,
        "Semi-Major Axis(m)": 6931778.249405717,
        "Time(s)": 270
    },
    {
        "Altitude(m)": 565749.302431454,
        "Argument of Periapsis(deg)": 0.009760197426314633,
        "Eccentricity": 0.0,
        "Inclination(deg)": 53.0,
        "Latitude(deg)": -38.10968335008813,
        "Longitude(deg)": -110.1502027210297,
        "Mean Anomaly(deg)": -129.7214263004119,
        "RAAN(deg)": 134.98547443783076,
        "Satellite Name": "Starlink Shell 1 607",
        "Satellite Number": 607,
        "Semi-Major Axis(m)": 6931778.249405717,
        "Time(s)": 280
    },
    {
        "Altitude(m)": 565915.2323592386,
        "Argument of Periapsis(deg)": 0.01010877590582587,
        "Eccentricity": 0.0,
        "Inclination(deg)": 53.0,
        "Latitude(deg)": -38.5132508763972,
        "Longitude(deg)": -109.58288779761628,
        "Mean Anomaly(deg)": -129.09459509685524,
        "RAAN(deg)": 134.9849556677533,
        "Satellite Name": "Starlink Shell 1 607",
        "Satellite Number": 607,
        "Semi-Major Axis(m)": 6931778.249405717,
        "Time(s)": 290
    },
    {
        "Altitude(m)": 566080.019960643,
        "Argument of Periapsis(deg)": 0.010457354385337106,
        "Eccentricity": 0.0,
        "Inclination(deg)": 53.0,
        "Latitude(deg)": -38.913583022456066,
        "Longitude(deg)": -109.00878875468044,
        "Mean Anomaly(deg)": -128.46776389329855,
        "RAAN(deg)": 134.9844368976758,
        "Satellite Name": "Starlink Shell 1 607",
        "Satellite Number": 607,
        "Semi-Major Axis(m)": 6931778.249405717,
        "Time(s)": 300
    },
    {
        "Altitude(m)": 566243.6012983578,
        "Argument of Periapsis(deg)": 0.010805932864848343,
        "Eccentricity": 0.0,
        "Inclination(deg)": 53.0,
        "Latitude(deg)": -39.310598409871254,
        "Longitude(deg)": -108.42778707851102,
        "Mean Anomaly(deg)": -127.84093268974186,
        "RAAN(deg)": 134.98391812759834,
        "Satellite Name": "Starlink Shell 1 607",
        "Satellite Number": 607,
        "Semi-Major Axis(m)": 6931778.249405717,
        "Time(s)": 310
    },
    {
        "Altitude(m)": 566405.9128271311,
        "Argument of Periapsis(deg)": 0.01115451134435958,
        "Eccentricity": 0.0,
        "Inclination(deg)": 53.0,
        "Latitude(deg)": -39.7042138942881,
        "Longitude(deg)": -107.8397647827129,
        "Mean Anomaly(deg)": -127.21410148618507,
        "RAAN(deg)": 134.98339935752085,
        "Satellite Name": "Starlink Shell 1 607",
        "Satellite Number": 607,
        "Semi-Major Axis(m)": 6931778.249405717,
        "Time(s)": 320
    },
    {
        "Altitude(m)": 566566.8914219586,
        "Argument of Periapsis(deg)": 0.011503089823870818,
        "Eccentricity": 0.0,
        "Inclination(deg)": 53.0,
        "Latitude(deg)": -40.094344547135805,
        "Longitude(deg)": -107.24460410528901,
        "Mean Anomaly(deg)": -126.58727028262838,
        "RAAN(deg)": 134.98288058744342,
        "Satellite Name": "Starlink Shell 1 607",
        "Satellite Number": 607,
        "Semi-Major Axis(m)": 6931778.249405717,
        "Time(s)": 330
    },
    {
        "Altitude(m)": 566726.4744061042,
        "Argument of Periapsis(deg)": 0.011851668303382053,
        "Eccentricity": 0.0,
        "Inclination(deg)": 53.0,
        "Latitude(deg)": -40.480903639829,
        "Longitude(deg)": -106.64218873346897,
        "Mean Anomaly(deg)": -125.96043907907168,
        "RAAN(deg)": 134.98236181736593,
        "Satellite Name": "Starlink Shell 1 607",
        "Satellite Number": 607,
        "Semi-Major Axis(m)": 6931778.249405717,
        "Time(s)": 340
    },
    {
        "Altitude(m)": 566884.5995789052,
        "Argument of Periapsis(deg)": 0.012200246782893292,
        "Eccentricity": 0.0,
        "Inclination(deg)": 53.0,
        "Latitude(deg)": -40.863802630695915,
        "Longitude(deg)": -106.03240353109634,
        "Mean Anomaly(deg)": -125.333607875515,
        "RAAN(deg)": 134.98184304728846,
        "Satellite Name": "Starlink Shell 1 607",
        "Satellite Number": 607,
        "Semi-Major Axis(m)": 6931778.249405717,
        "Time(s)": 350
    },
    {
        "Altitude(m)": 567041.2052433179,
        "Argument of Periapsis(deg)": 0.012548825262404526,
        "Eccentricity": 0.0,
        "Inclination(deg)": 53.0,
        "Latitude(deg)": -41.24295115491799,
        "Longitude(deg)": -105.41513428198397,
        "Mean Anomaly(deg)": -124.70677667195825,
        "RAAN(deg)": 134.98132427721097,
        "Satellite Name": "Starlink Shell 1 607",
        "Satellite Number": 607,
        "Semi-Major Axis(m)": 6931778.249405717,
        "Time(s)": 360
    },
    {
        "Altitude(m)": 567196.2302332711,
        "Argument of Periapsis(deg)": 0.012897403741915765,
        "Eccentricity": 0.0,
        "Inclination(deg)": 53.0,
        "Latitude(deg)": -41.618257017778774,
        "Longitude(deg)": -104.79026896261793,
        "Mean Anomaly(deg)": -124.07994546840149,
        "RAAN(deg)": 134.9808055071335,
        "Satellite Name": "Starlink Shell 1 607",
        "Satellite Number": 607,
        "Semi-Major Axis(m)": 6931778.249405717,
        "Time(s)": 370
    }
]